{"type": "FeatureCollection", "features": [ {"type": "Feature", "properties": {"norad_id": 30612, "name": "FENGYUN 1C DEB", "group": "fengyun-1c-debris", "lat": 2.5577505796449964, "lon": -31.97649855821049, "alt_km": 461.55154308479996, "timestamp": "2025-12-06T14:35:37.403675+00:00", "meta": {"OBJECT_NAME": "FENGYUN 1C DEB", "OBJECT_ID": "1999-025AMT", "EPOCH": "2025-12-06T05:12:29.765088", "MEAN_MOTION": 15.27844086, "ECCENTRICITY": 0.00338429, "INCLINATION": 99.0816, "RA_OF_ASC_NODE": 327.9571, "ARG_OF_PERICENTER": 10.1336, "MEAN_ANOMALY": 2.9332, "EPHEMERIS_TYPE": 0, "CLASSIFICATION_TYPE": "U", "NORAD_CAT_ID": 30612, "ELEMENT_SET_NO": 999, "REV_AT_EPOCH": 158, "BSTAR": 0.0053706343, "MEAN_MOTION_DOT": 0.00151199, "MEAN_MOTION_DDOT": 0}, "tle": {"line1": "1 30612U 99025AMT 25340.21701117  .00151199  00000+0  53706-2 0  9999", "line2": "2 30612  99.0816 327.9571 0033842  10.1336   2.9332 15.27844086  1583"}}, "geometry": {"type": "Point", "coordinates": [-31.97649855821049, 2.5577505796449964]}}, {"type": "Feature", "properties": {"norad_id": 30613, "name": "FENGYUN 1C DEB", "group": "fengyun-1c-debris", "lat": 28.40738486552142, "lon": 95.23947648206472, "alt_km": 563.5491230425905, "timestamp": "2025-12-06T14:35:37.403699+00:00", "meta": {"OBJECT_NAME": "FENGYUN 1C DEB", "OBJECT_ID": "1999-025AMU", "EPOCH": "2025-12-06T00:12:13.646592", "MEAN_MOTION": 15.15415902, "ECCENTRICITY": 0.00709157, "INCLINATION": 98.3088, "RA_OF_ASC_NODE": 99.1177, "ARG_OF_PERICENTER": 189.8054, "MEAN_ANOMALY": 170.1797, "EPHEMERIS_TYPE": 0, "CLASSIFICATION_TYPE": "U", "NORAD_CAT_ID": 30613, "ELEMENT_SET_NO": 999, "REV_AT_EPOCH": 99294, "BSTAR": 0.0065263776, "MEAN_MOTION_DOT": 0.00133441, "MEAN_MOTION_DDOT": 0}, "tle": {"line1": "1 30613U 99025AMU 25340.00849128  .00133441  00000+0  65264-2 0  9994", "line2": "2 30613  98.3088  99.1177 0070915 189.8054 170.1797 15.15415902992940"}}, "geometry": {"type": "Point", "coordinates": [95.23947648206472, 28.40738486552142]}}, {"type": "Feature", "properties": {"norad_id": 30616, "name": "FENGYUN 1C DEB", "group": "fengyun-1c-debris", "lat": 44.11703482701948, "lon": -131.79176436325622, "alt_km": 1320.5297441573757, "timestamp": "2025-12-06T14:35:37.403721+00:00", "meta": {"OBJECT_NAME": "FENGYUN 1C DEB", "OBJECT_ID": "1999-025AMX", "EPOCH": "2025-12-05T21:42:22.174848", "MEAN_MOTION": 13.35981923, "ECCENTRICITY": 0.03793477, "INCLINATION": 98.641, "RA_OF_ASC_NODE": 39.1319, "ARG_OF_PERICENTER": 273.1214, "MEAN_ANOMALY": 82.6585, "EPHEMERIS_TYPE": 0, "CLASSIFICATION_TYPE": "U", "NORAD_CAT_ID": 30616, "ELEMENT_SET_NO": 999, "REV_AT_EPOCH": 91609, "BSTAR": 0.0026964888, "MEAN_MOTION_DOT": 2.043e-05, "MEAN_MOTION_DDOT": 0}, "tle": {"line1": "1 30616U 99025AMX 25339.90442332  .00002043  00000+0  26965-2 0  9998", "line2": "2 30616  98.6410  39.1319 0379347 273.1214  82.6585 13.35981923916098"}}, "geometry": {"type": "Point", "coordinates": [-131.79176436325622, 44.11703482701948]}}, {"type": "Feature", "properties": {"norad_id": 30619, "name": "FENGYUN 1C DEB", "group": "fengyun-1c-debris", "lat": -64.19716909551282, "lon": 21.28060669257475, "alt_km": 882.9669205631617, "timestamp": "2025-12-06T14:35:37.403745+00:00", "meta": {"OBJECT_NAME": "FENGYUN 1C DEB", "OBJECT_ID": "1999-025ANA", "EPOCH": "2025-12-06T08:14:08.187648", "MEAN_MOTION": 14.41071099, "ECCENTRICITY": 0.02161661, "INCLINATION": 98.2962, "RA_OF_ASC_NODE": 3.4579, "ARG_OF_PERICENTER": 77.7022, "MEAN_ANOMALY": 284.8277, "EPHEMERIS_TYPE": 0, "CLASSIFICATION_TYPE": "U", "NORAD_CAT_ID": 30619, "ELEMENT_SET_NO": 999, "REV_AT_EPOCH": 98857, "BSTAR": 0.0005347614, "MEAN_MOTION_DOT": 2.225e-05, "MEAN_MOTION_DDOT": 0}, "tle": {"line1": "1 30619U 99025ANA 25340.34315032  .00002225  00000+0  53476-3 0  9997", "line2": "2 30619  98.2962   3.4579 0216166  77.7022 284.8277 14.41071099988573"}}, "geometry": {"type": "Point", "coordinates": [21.28060669257475, -64.19716909551282]}}, {"type": "Feature", "properties": {"norad_id": 30621, "name": "FENGYUN 1C DEB", "group": "fengyun-1c-debris", "lat": 22.413058577478324, "lon": -79.32837451277139, "alt_km": 827.627087889291, "timestamp": "2025-12-06T14:35:37.403769+00:00", "meta": {"OBJECT_NAME": "FENGYUN 1C DEB", "OBJECT_ID": "1999-025ANC", "EPOCH": "2025-12-05T08:25:22.708992", "MEAN_MOTION": 14.03718657, "ECCENTRICITY": 0.01387186, "INCLINATION": 98.697, "RA_OF_ASC_NODE": 283.0881, "ARG_OF_PERICENTER": 327.2931, "MEAN_ANOMALY": 184.9353, "EPHEMERIS_TYPE": 0, "CLASSIFICATION_TYPE": "U", "NORAD_CAT_ID": 30621, "ELEMENT_SET_NO": 999, "REV_AT_EPOCH": 95486, "BSTAR": 0.0051365533, "MEAN_MOTION_DOT": 8.766e-05, "MEAN_MOTION_DDOT": 0}, "tle": {"line1": "1 30621U 99025ANC 25339.35095728  .00008766  00000+0  51366-2 0  9997", "line2": "2 30621  98.6970 283.0881 0138718 327.2931 184.9353 14.03718657954865"}}, "geometry": {"type": "Point", "coordinates": [-79.32837451277139, 22.413058577478324]}}, {"type": "Feature", "properties": {"norad_id": 30622, "name": "FENGYUN 1C DEB", "group": "fengyun-1c-debris", "lat": 24.069221814953597, "lon": -14.452035035933239, "alt_km": 735.8810353172939, "timestamp": "2025-12-06T14:35:37.403792+00:00", "meta": {"OBJECT_NAME": "FENGYUN 1C DEB", "OBJECT_ID": "1999-025AND", "EPOCH": "2025-12-05T06:41:26.691360", "MEAN_MOTION": 14.31010694, "ECCENTRICITY": 0.00725582, "INCLINATION": 101.0015, "RA_OF_ASC_NODE": 348.8541, "ARG_OF_PERICENTER": 35.2074, "MEAN_ANOMALY": 345.0178, "EPHEMERIS_TYPE": 0, "CLASSIFICATION_TYPE": "U", "NORAD_CAT_ID": 30622, "ELEMENT_SET_NO": 999, "REV_AT_EPOCH": 68691, "BSTAR": 0.00612372, "MEAN_MOTION_DOT": 0.00016566, "MEAN_MOTION_DDOT": 0}, "tle": {"line1": "1 30622U 99025AND 25339.27878115  .00016566  00000+0  61237-2 0  9993", "line2": "2 30622 101.0015 348.8541 0072558  35.2074 345.0178 14.31010694686911"}}, "geometry": {"type": "Point", "coordinates": [-14.452035035933239, 24.069221814953597]}}, {"type": "Feature", "properties": {"norad_id": 30623, "name": "FENGYUN 1C DEB", "group": "fengyun-1c-debris", "lat": -48.720552761057306, "lon": 170.3912993684506, "alt_km": 1457.1929677920753, "timestamp": "2025-12-06T14:35:37.403817+00:00", "meta": {"OBJECT_NAME": "FENGYUN 1C DEB", "OBJECT_ID": "1999-025ANE", "EPOCH": "2025-12-06T06:40:18.751584", "MEAN_MOTION": 13.29331494, "ECCENTRICITY": 0.0403848, "INCLINATION": 98.8232, "RA_OF_ASC_NODE": 159.918, "ARG_OF_PERICENTER": 123.7589, "MEAN_ANOMALY": 48.6422, "EPHEMERIS_TYPE": 0, "CLASSIFICATION_TYPE": "U", "NORAD_CAT_ID": 30623, "ELEMENT_SET_NO": 999, "REV_AT_EPOCH": 91130, "BSTAR": 0.00089640881, "MEAN_MOTION_DOT": 6.17e-06, "MEAN_MOTION_DDOT": 0}, "tle": {"line1": "1 30623U 99025ANE 25340.27799481  .00000617  00000+0  89641-3 0  9994", "line2": "2 30623  98.8232 159.9180 0403848 123.7589  48.6422 13.29331494911302"}}, "geometry": {"type": "Point", "coordinates": [170.3912993684506, -48.720552761057306]}}, {"type": "Feature", "properties": {"norad_id": 30624, "name": "FENGYUN 1C DEB", "group": "fengyun-1c-debris", "lat": -12.224617961245121, "lon": 64.09177607954256, "alt_km": 684.3430966435526, "timestamp": "2025-12-06T14:35:37.403838+00:00", "meta": {"OBJECT_NAME": "FENGYUN 1C DEB", "OBJECT_ID": "1999-025ANF", "EPOCH": "2025-12-05T04:09:10.347552", "MEAN_MOTION": 14.6176874, "ECCENTRICITY": 0.00210678, "INCLINATION": 98.8881, "RA_OF_ASC_NODE": 60.6071, "ARG_OF_PERICENTER": 290.528, "MEAN_ANOMALY": 69.3658, "EPHEMERIS_TYPE": 0, "CLASSIFICATION_TYPE": "U", "NORAD_CAT_ID": 30624, "ELEMENT_SET_NO": 999, "REV_AT_EPOCH": 97385, "BSTAR": 0.0095402737, "MEAN_MOTION_DOT": 0.00048021, "MEAN_MOTION_DDOT": 0}, "tle": {"line1": "1 30624U 99025ANF 25339.17303643  .00048021  00000+0  95403-2 0  9996", "line2": "2 30624  98.8881  60.6071 0021067 290.5280  69.3658 14.61768740973854"}}, "geometry": {"type": "Point", "coordinates": [64.09177607954256, -12.224617961245121]}}, {"type": "Feature", "properties": {"norad_id": 30625, "name": "FENGYUN 1C DEB", "group": "fengyun-1c-debris", "lat": 38.31249316553973, "lon": -70.84316254453735, "alt_km": 744.1114139062856, "timestamp": "2025-12-06T14:35:37.403861+00:00", "meta": {"OBJECT_NAME": "FENGYUN 1C DEB", "OBJECT_ID": "1999-025ANG", "EPOCH": "2025-12-06T02:45:05.386752", "MEAN_MOTION": 14.41208305, "ECCENTRICITY": 0.00509281, "INCLINATION": 98.9282, "RA_OF_ASC_NODE": 295.7766, "ARG_OF_PERICENTER": 321.9448, "MEAN_ANOMALY": 37.8146, "EPHEMERIS_TYPE": 0, "CLASSIFICATION_TYPE": "U", "NORAD_CAT_ID": 30625, "ELEMENT_SET_NO": 999, "REV_AT_EPOCH": 96597, "BSTAR": 0.0072923851, "MEAN_MOTION_DOT": 0.0002394, "MEAN_MOTION_DDOT": 0}, "tle": {"line1": "1 30625U 99025ANG 25340.11464568  .00023940  00000+0  72924-2 0  9993", "line2": "2 30625  98.9282 295.7766 0050928 321.9448  37.8146 14.41208305965976"}}, "geometry": {"type": "Point", "coordinates": [-70.84316254453735, 38.31249316553973]}}, {"type": "Feature", "properties": {"norad_id": 30628, "name": "FENGYUN 1C DEB", "group": "fengyun-1c-debris", "lat": 2.2367329932795057, "lon": 75.83995604674392, "alt_km": 667.7211550870497, "timestamp": "2025-12-06T14:35:37.403911+00:00", "meta": {"OBJECT_NAME": "FENGYUN 1C DEB", "OBJECT_ID": "1999-025ANK", "EPOCH": "2025-12-06T05:36:36.463968", "MEAN_MOTION": 14.68721188, "ECCENTRICITY": 0.0023448, "INCLINATION": 99.3406, "RA_OF_ASC_NODE": 255.0445, "ARG_OF_PERICENTER": 268.8202, "MEAN_ANOMALY": 91.0312, "EPHEMERIS_TYPE": 0, "CLASSIFICATION_TYPE": "U", "NORAD_CAT_ID": 30628, "ELEMENT_SET_NO": 999, "REV_AT_EPOCH": 98375, "BSTAR": 0.0053352993, "MEAN_MOTION_DOT": 0.00031288, "MEAN_MOTION_DDOT": 0}, "tle": {"line1": "1 30628U 99025ANK 25340.23375537  .00031288  00000+0  53353-2 0  9995", "line2": "2 30628  99.3406 255.0445 0023448 268.8202  91.0312 14.68721188983750"}}, "geometry": {"type": "Point", "coordinates": [75.83995604674392, 2.2367329932795057]}}]}